$$SOE
2460154.500000000, A.D. 2023-Jul-29 00:00:00.0000, -2.837967576794665E+08, 2.503283476882379E+08, 3.084286153199089E+07,
2460161.500000000, A.D. 2023-Aug-05 00:00:00.0000, -2.924793446308852E+08, 2.444113428804138E+08, 3.074244062165870E+07,
2460168.500000000, A.D. 2023-Aug-12 00:00:00.0000, -3.009080649015332E+08, 2.382821067116407E+08, 3.061532920451045E+07,
2460175.500000000, A.D. 2023-Aug-19 00:00:00.0000, -3.090809624081081E+08, 2.319502040577326E+08, 3.046218318650803E+07,
2460182.500000000, A.D. 2023-Aug-26 00:00:00.0000, -3.169963143243908E+08, 2.254249397419474E+08, 3.028364802041025E+07,
2460189.500000000, A.D. 2023-Sep-02 00:00:00.0000, -3.246526113206831E+08, 2.187153678121839E+08, 3.008035861100717E+07,
2460196.500000000, A.D. 2023-Sep-09 00:00:00.0000, -3.320485393948225E+08, 2.118303008054437E+08, 2.985293928223269E+07,
2460203.500000000, A.D. 2023-Sep-16 00:00:00.0000, -3.391829630033446E+08, 2.047783188745840E+08, 2.960200377585629E+07,
2460210.500000000, A.D. 2023-Sep-23 00:00:00.0000, -3.460549089616356E+08, 1.975677790088137E+08, 2.932815525814646E+07,
2460217.500000000, A.D. 2023-Sep-30 00:00:00.0000, -3.526635513464819E+08, 1.902068254930681E+08, 2.903198645524979E+07,
2460224.500000000, A.D. 2023-Oct-07 00:00:00.0000, -3.590081996585074E+08, 1.827034010273710E+08, 2.871408008220811E+07,
2460231.500000000, A.D. 2023-Oct-14 00:00:00.0000, -3.650882891152468E+08, 1.750652551669326E+08, 2.837500919384927E+07,
2460238.500000000, A.D. 2023-Oct-21 00:00:00.0000, -3.709033697583921E+08, 1.672999516637584E+08, 2.801533728737145E+07,
2460245.500000000, A.D. 2023-Oct-28 00:00:00.0000, -3.764530957204213E+08, 1.594148769493259E+08, 2.763561846758452E+07,
2460252.500000000, A.D. 2023-Nov-04 00:00:00.0000, -3.817372158328609E+08, 1.514172489748750E+08, 2.723639772295566E+07,
2460259.500000000, A.D. 2023-Nov-11 00:00:00.0000, -3.867555653351206E+08, 1.433141258025508E+08, 2.681821124420201E+07,
2460266.500000000, A.D. 2023-Nov-18 00:00:00.0000, -3.915080584044500E+08, 1.351124138784527E+08, 2.638158675749125E+07,
2460273.500000000, A.D. 2023-Nov-25 00:00:00.0000, -3.959946813794463E+08, 1.268188760076353E+08, 2.592704386522307E+07,
2460280.500000000, A.D. 2023-Dec-02 00:00:00.0000, -4.002154865991761E+08, 1.184401390199850E+08, 2.545509438901383E+07,
2460287.500000000, A.D. 2023-Dec-09 00:00:00.0000, -4.041705867342265E+08, 1.099827010707209E+08, 2.496624270127447E+07,
2460294.500000000, A.D. 2023-Dec-16 00:00:00.0000, -4.078601492788626E+08, 1.014529385926012E+08, 2.446098601850870E+07,
2460301.500000000, A.D. 2023-Dec-23 00:00:00.0000, -4.112843908143269E+08, 9.285711359224252E+07, 2.393981467909219E+07,
2460308.500000000, A.D. 2023-Dec-30 00:00:00.0000, -4.144435723450227E+08, 8.420138234357807E+07, 2.340321261286240E+07,
2460315.500000000, A.D. 2024-Jan-06 00:00:00.0000, -4.173379974481767E+08, 7.549180312094444E+07, 2.285165797110385E+07,
2460322.500000000, A.D. 2024-Jan-13 00:00:00.0000, -4.199680100380533E+08, 6.673434117068644E+07, 2.228562347761193E+07,
2460329.500000000, A.D. 2024-Jan-20 00:00:00.0000, -4.223339904956790E+08, 5.793487401323657E+07, 2.170557664023096E+07,
2460336.500000000, A.D. 2024-Jan-27 00:00:00.0000, -4.244363521706365E+08, 4.909919773480386E+07, 2.111198006174040E+07,
2460343.500000000, A.D. 2024-Feb-03 00:00:00.0000, -4.262755386657035E+08, 4.023303332896933E+07, 2.050529181142034E+07,
2460350.500000000, A.D. 2024-Feb-10 00:00:00.0000, -4.278520216098304E+08, 3.134203280780502E+07, 1.988596580776690E+07,
2460357.500000000, A.D. 2024-Feb-17 00:00:00.0000, -4.291662987632768E+08, 2.243178510067052E+07, 1.925445220007754E+07,
2460364.500000000, A.D. 2024-Feb-24 00:00:00.0000, -4.302188924027653E+08, 1.350782176475739E+07, 1.861119774669024E+07,
2460371.500000000, A.D. 2024-Mar-02 00:00:00.0000, -4.310103479430709E+08, 4.575622483829115E+06, 1.795664618449757E+07,
2460378.500000000, A.D. 2024-Mar-09 00:00:00.0000, -4.315412326437650E+08, -4.359379698613239E+06, 1.729123857191633E+07,
2460385.500000000, A.D. 2024-Mar-16 00:00:00.0000, -4.318121339945313E+08, -1.329179320525627E+07, 1.661541358529111E+07,
2460392.500000000, A.D. 2024-Mar-23 00:00:00.0000, -4.318236578721079E+08, -2.221626169202786E+07, 1.592960786901089E+07,
2460399.500000000, A.D. 2024-Mar-30 00:00:00.0000, -4.315764287010440E+08, -3.112745677530846E+07, 1.523425664288269E+07,
2460406.500000000, A.D. 2024-Apr-06 00:00:00.0000, -4.310710913569500E+08, -4.002007307976020E+07, 1.452979426835851E+07,
2460413.500000000, A.D. 2024-Apr-13 00:00:00.0000, -4.303083112575081E+08, -4.888882476182986E+07, 1.381665451683027E+07,
2460420.500000000, A.D. 2024-Apr-20 00:00:00.0000, -4.292887735883601E+08, -5.772844082367792E+07, 1.309527084679859E+07,
2460427.500000000, A.D. 2024-Apr-27 00:00:00.0000, -4.280131831777118E+08, -6.653365977231736E+07, 1.236607678383580E+07,
2460434.500000000, A.D. 2024-May-04 00:00:00.0000, -4.264822649326748E+08, -7.529922432072768E+07, 1.162950633845920E+07,
2460441.500000000, A.D. 2024-May-11 00:00:00.0000, -4.246967646016663E+08, -8.401987622448015E+07, 1.088599443252127E+07,
2460448.500000000, A.D. 2024-May-18 00:00:00.0000, -4.226574497834124E+08, -9.269035122324450E+07, 1.013597732922520E+07,
2460455.500000000, A.D. 2024-May-25 00:00:00.0000, -4.203651111604923E+08, -1.013053740855645E+08, 9.379893064797156E+06,
2460462.500000000, A.D. 2024-Jun-01 00:00:00.0000, -4.178205639010389E+08, -1.098596538061265E+08, 8.618181872545131E+06,
2460469.500000000, A.D. 2024-Jun-08 00:00:00.0000, -4.150246489867954E+08, -1.183478789706758E+08, 7.851286575802371E+06,
2460476.500000000, A.D. 2024-Jun-15 00:00:00.0000, -4.119782340735806E+08, -1.267647127359860E+08, 7.079652958692379E+06,
2460483.500000000, A.D. 2024-Jun-22 00:00:00.0000, -4.086822148957336E+08, -1.351047862427262E+08, 6.303730304016374E+06,
2460490.500000000, A.D. 2024-Jun-29 00:00:00.0000, -4.051375193443138E+08, -1.433626922763112E+08, 5.523972145065531E+06,
2460497.500000000, A.D. 2024-Jul-06 00:00:00.0000, -4.013451115857979E+08, -1.515329816418553E+08, 4.740836787809297E+06,
2460504.500000000, A.D. 2024-Jul-13 00:00:00.0000, -3.973059942850548E+08, -1.596101594227163E+08, 3.954787656623997E+06,
2460511.500000000, A.D. 2024-Jul-20 00:00:00.0000, -3.930212109300719E+08, -1.675886799672370E+08, 3.166293740743488E+06,
2460518.500000000, A.D. 2024-Jul-27 00:00:00.0000, -3.884918489273790E+08, -1.754629415585613E+08, 2.375830124127798E+06,
2460525.500000000, A.D. 2024-Aug-03 00:00:00.0000, -3.837190432118573E+08, -1.832272811394958E+08, 1.583878543836482E+06,
2460532.500000000, A.D. 2024-Aug-10 00:00:00.0000, -3.787039802250257E+08, -1.908759690936447E+08, 7.909279621088803E+05,
2460539.500000000, A.D. 2024-Aug-17 00:00:00.0000, -3.734479022360064E+08, -1.984032040569780E+08, -2.524849561363459E+03,
2460546.500000000, A.D. 2024-Aug-24 00:00:00.0000, -3.679521119996349E+08, -2.058031077774657E+08, -7.959747178152055E+05,
2460553.500000000, A.D. 2024-Aug-31 00:00:00.0000, -3.622179776587598E+08, -2.130697200798200E+08, -1.588907480911434E+06,
2460560.500000000, A.D. 2024-Sep-07 00:00:00.0000, -3.562469375483032E+08, -2.201969938059956E+08, -2.380799430432945E+06,
2460567.500000000, A.D. 2024-Sep-14 00:00:00.0000, -3.500405048404007E+08, -2.271787887355267E+08, -3.171116706598848E+06,
2460574.500000000, A.D. 2024-Sep-21 00:00:00.0000, -3.436002740874456E+08, -2.340088640768399E+08, -3.959314426500037E+06,
2460581.500000000, A.D. 2024-Sep-28 00:00:00.0000, -3.369279301846082E+08, -2.406808727646768E+08, -4.744835763708726E+06,
2460588.500000000, A.D. 2024-Oct-05 00:00:00.0000, -3.300252561232234E+08, -2.471883575708261E+08, -5.527111315122217E+06,
2460595.500000000, A.D. 2024-Oct-12 00:00:00.0000, -3.228941399397904E+08, -2.535247460553566E+08, -6.305558477503493E+06,
2460602.500000000, A.D. 2024-Oct-19 00:00:00.0000, -3.155365826555473E+08, -2.596833446363909E+08, -7.079580694134951E+06,
2460609.500000000, A.D. 2024-Oct-26 00:00:00.0000, -3.079547072841054E+08, -2.656573325903951E+08, -7.848566633106500E+06,
2460616.500000000, A.D. 2024-Nov-02 00:00:00.0000, -3.001507686985345E+08, -2.714397561469663E+08, -8.611889332198307E+06,
2460623.500000000, A.D. 2024-Nov-09 00:00:00.0000, -2.921271643151101E+08, -2.770235226775697E+08, -9.368905316891178E+06,
2460630.500000000, A.D. 2024-Nov-16 00:00:00.0000, -2.838864456263855E+08, -2.824013950020761E+08, -1.011895369328019E+07,
2460637.500000000, A.D. 2024-Nov-23 00:00:00.0000, -2.754313305994257E+08, -2.875659858916807E+08, -1.086135522382967E+07,
2460644.500000000, A.D. 2024-Nov-30 00:00:00.0000, -2.667647167980648E+08, -2.925097528452322E+08, -1.159541140835540E+07,
2460651.500000000, A.D. 2024-Dec-07 00:00:00.0000, -2.578896948817185E+08, -2.972249927593028E+08, -1.232040357441679E+07,
2460658.500000000, A.D. 2024-Dec-14 00:00:00.0000, -2.488095632459847E+08, -3.017038353160262E+08, -1.303559181433861E+07,
2460665.500000000, A.D. 2024-Dec-21 00:00:00.0000, -2.395278462043245E+08, -3.059382363860235E+08, -1.374021365848647E+07,
2460672.500000000, A.D. 2024-Dec-28 00:00:00.0000, -2.300483138246636E+08, -3.099199744821528E+08, -1.443348290984160E+07,
2460679.500000000, A.D. 2025-Jan-04 00:00:00.0000, -2.203750009172450E+08, -3.136406479687806E+08, -1.511458868617289E+07,
2460686.500000000, A.D. 2025-Jan-11 00:00:00.0000, -2.105122270937925E+08, -3.170916714587713E+08, -1.578269436989614E+07,
2460693.500000000, A.D. 2025-Jan-18 00:00:00.0000, -2.004646189172541E+08, -3.202642724221236E+08, -1.643693646016483E+07,
2460700.500000000, A.D. 2025-Jan-25 00:00:00.0000, -1.902371340040935E+08, -3.231494886023631E+08, -1.707642339300926E+07,
2460707.500000000, A.D. 2025-Feb-01 00:00:00.0000, -1.798350869980760E+08, -3.257381664124975E+08, -1.770023435557024E+07,
2460714.500000000, A.D. 2025-Feb-08 00:00:00.0000, -1.692641774690484E+08, -3.280209604557508E+08, -1.830741810611045E+07,
$$EOE